[{"OBJECT_NAME":"ASTROCAST-0403","OBJECT_ID":"2023-001DG","EPOCH":"2026-03-09T19:45:35.762976","MEAN_MOTION":15.28004949,"ECCENTRICITY":0.00047706,"INCLINATION":97.5604,"RA_OF_ASC_NODE":161.3228,"ARG_OF_PERICENTER":338.0704,"MEAN_ANOMALY":22.033,"EPHEMERIS_TYPE":0,"CLASSIFICATION_TYPE":"U","NORAD_CAT_ID":55111,"ELEMENT_SET_NO":999,"REV_AT_EPOCH":12937,"BSTAR":0.0005131719,"MEAN_MOTION_DOT":0.00013959,"MEAN_MOTION_DDOT":0},{"OBJECT_NAME":"STARLINK-36522","OBJECT_ID":"2026-008S","EPOCH":"2026-03-09T10:30:29.180736","MEAN_MOTION":15.27623629,"ECCENTRICITY":0.00029915,"INCLINATION":43.0018,"RA_OF_ASC_NODE":206.658,"ARG_OF_PERICENTER":301.8818,"MEAN_ANOMALY":58.1742,"EPHEMERIS_TYPE":0,"CLASSIFICATION_TYPE":"U","NORAD_CAT_ID":67461,"ELEMENT_SET_NO":999,"REV_AT_EPOCH":953,"BSTAR":0.0012883897,"MEAN_MOTION_DOT":0.00035412,"MEAN_MOTION_DDOT":0}]
